{
"type": "FeatureCollection",
"name": "bldg_smaller_block",
"crs": { "type": "name", "properties": { "name": "urn:ogc:def:crs:OGC:1.3:CRS84" } },
"features": [
{ "type": "Feature", "properties": { "id": 2070, "height": 29.7, "nfloor": 5, "usecode": 121, "shape_leng": 36.572147874499997, "shape_area": 82.107199992299996, "usename": "Office", "geom_Length": 36.566819835095103, "geom_Area": 82.083402094232412, "index_right": 0 }, "geometry": { "type": "MultiPolygon", "coordinates": [ [ [ [ 139.779114565810175, 35.688067065791934 ], [ 139.779004760895305, 35.688040606028011 ], [ 139.778979963507851, 35.68810909960964 ], [ 139.779089770717007, 35.68813555941999 ], [ 139.779114565810175, 35.688067065791934 ] ] ] ] } },
{ "type": "Feature", "properties": { "id": 2563, "height": 30.0, "nfloor": 2, "usecode": 123, "shape_leng": 29.841786613499998, "shape_area": 41.050499996100001, "usename": "Residence & Commercial Mixed", "geom_Length": 29.837343228610379, "geom_Area": 41.037990215479851, "index_right": 0 }, "geometry": { "type": "MultiPolygon", "coordinates": [ [ [ [ 139.778989151026138, 35.687861292938202 ], [ 139.77895081887749, 35.687851360923581 ], [ 139.778912966433012, 35.687948151437027 ], [ 139.778951187576041, 35.687958263554556 ], [ 139.778989151026138, 35.687861292938202 ] ] ] ] } },
{ "type": "Feature", "properties": { "id": 3037, "height": 18.3, "nfloor": 4, "usecode": 121, "shape_leng": 141.4660013, "shape_area": 888.05704999700004, "usename": "Office", "geom_Length": 141.44462798965122, "geom_Area": 887.784005648277, "index_right": 0 }, "geometry": { "type": "MultiPolygon", "coordinates": [ [ [ [ 139.779499438278748, 35.688321696965488 ], [ 139.779329322476798, 35.688272856512448 ], [ 139.779130019504265, 35.688735620728025 ], [ 139.77930013641938, 35.688784371321297 ], [ 139.779499438278748, 35.688321696965488 ] ] ] ] } },
{ "type": "Feature", "properties": { "id": 3042, "height": 26.8, "nfloor": 6, "usecode": 121, "shape_leng": 111.156113386, "shape_area": 555.54198100400004, "usename": "Office", "geom_Length": 111.1395335141392, "geom_Area": 555.37577974677743, "index_right": 0 }, "geometry": { "type": "MultiPolygon", "coordinates": [ [ [ [ 139.779113803787851, 35.688729466189365 ], [ 139.779256950175068, 35.688359012788688 ], [ 139.779119096719569, 35.688323563053871 ], [ 139.778980112284046, 35.688683245913644 ], [ 139.779113803787851, 35.688729466189365 ] ] ] ] } },
{ "type": "Feature", "properties": { "id": 3044, "height": 19.9, "nfloor": 6, "usecode": 121, "shape_leng": 38.971720273300001, "shape_area": 88.135499998699999, "usename": "Office", "geom_Length": 38.965785758284056, "geom_Area": 88.108784748921408, "index_right": 0 }, "geometry": { "type": "MultiPolygon", "coordinates": [ [ [ [ 139.778917976720294, 35.688597524021773 ], [ 139.778789395404004, 35.688560600129115 ], [ 139.778763501170516, 35.688619537551844 ], [ 139.778890755295947, 35.688659797360771 ], [ 139.778917976720294, 35.688597524021773 ] ] ] ] } },
{ "type": "Feature", "properties": { "id": 3065, "height": 9.2, "nfloor": 3, "usecode": 123, "shape_leng": 34.655080586799997, "shape_area": 59.175899999199999, "usename": "Residence & Commercial Mixed", "geom_Length": 34.649915112885999, "geom_Area": 59.158561296586953, "index_right": 0 }, "geometry": { "type": "MultiPolygon", "coordinates": [ [ [ [ 139.779596413830802, 35.688105817977124 ], [ 139.779462857762212, 35.688072227980463 ], [ 139.779447583477605, 35.688112512363332 ], [ 139.779581139592239, 35.688146103279344 ], [ 139.779596413830802, 35.688105817977124 ] ] ] ] } },
{ "type": "Feature", "properties": { "id": 3067, "height": 24.6, "nfloor": 2, "usecode": 121, "shape_leng": 21.6478477906, "shape_area": 25.498839242500001, "usename": "Office", "geom_Length": 21.644595968313464, "geom_Area": 25.491077809965216, "index_right": 0 }, "geometry": { "type": "MultiPolygon", "coordinates": [ [ [ [ 139.779525572914054, 35.688009583210736 ], [ 139.779488521072551, 35.687999894249529 ], [ 139.779467241443058, 35.688063980641317 ], [ 139.779503260282098, 35.688073217363105 ], [ 139.779525572914054, 35.688009583210736 ] ] ] ] } },
{ "type": "Feature", "properties": { "id": 3074, "height": 30.2, "nfloor": 8, "usecode": 123, "shape_leng": 34.434211719300002, "shape_area": 72.960299993700005, "usename": "Residence & Commercial Mixed", "geom_Length": 34.429218485832045, "geom_Area": 72.939164168554228, "index_right": 0 }, "geometry": { "type": "MultiPolygon", "coordinates": [ [ [ [ 139.779370867152267, 35.687967078464737 ], [ 139.779268573742968, 35.687940621183586 ], [ 139.779243781521473, 35.688005239002905 ], [ 139.77934519011481, 35.688031965919592 ], [ 139.779370867152267, 35.687967078464737 ] ] ] ] } },
{ "type": "Feature", "properties": { "id": 3078, "height": 22.5, "nfloor": 5, "usecode": 121, "shape_leng": 45.114663440299999, "shape_area": 127.20825049299999, "usename": "Office", "geom_Length": 45.107848783107329, "geom_Area": 127.16982284984451, "index_right": 0 }, "geometry": { "type": "MultiPolygon", "coordinates": [ [ [ [ 139.778948325628534, 35.687850932627597 ], [ 139.778830570641134, 35.687817888997238 ], [ 139.778790065201065, 35.687914137756785 ], [ 139.778907932207204, 35.687947090603174 ], [ 139.778948325628534, 35.687850932627597 ] ] ] ] } },
{ "type": "Feature", "properties": { "id": 3486, "height": 27.4, "nfloor": 9, "usecode": 132, "shape_leng": 28.9955587175, "shape_area": 52.139568135099999, "usename": "Apartment", "geom_Length": 28.991092598013168, "geom_Area": 52.123499959098616, "index_right": 0 }, "geometry": { "type": "MultiPolygon", "coordinates": [ [ [ [ 139.779622912640832, 35.688038190797357 ], [ 139.779539662412731, 35.688015510576115 ], [ 139.779517421631112, 35.68807210776199 ], [ 139.779599282795459, 35.688094786537619 ], [ 139.779622912640832, 35.688038190797357 ] ] ] ] } },
{ "type": "Feature", "properties": { "id": 3550, "height": 24.1, "nfloor": 6, "usecode": 121, "shape_leng": 48.37200439, "shape_area": 145.89839999700001, "usename": "Office", "geom_Length": 48.364560025800039, "geom_Area": 145.85352779679371, "index_right": 0 }, "geometry": { "type": "MultiPolygon", "coordinates": [ [ [ [ 139.779306132136014, 35.688253736939231 ], [ 139.779172910390628, 35.688218433411272 ], [ 139.779133729573317, 35.688317115545331 ], [ 139.779266953672902, 35.68835241914141 ], [ 139.779306132136014, 35.688253736939231 ] ] ] ] } },
{ "type": "Feature", "properties": { "id": 3552, "height": 8.9, "nfloor": 2, "usecode": 123, "shape_leng": 29.815219475199999, "shape_area": 54.658199993700002, "usename": "Residence & Commercial Mixed", "geom_Length": 29.810611571662399, "geom_Area": 54.6414174942378, "index_right": 0 }, "geometry": { "type": "MultiPolygon", "coordinates": [ [ [ [ 139.779072391616637, 35.68818305303806 ], [ 139.778983464769851, 35.688161290358266 ], [ 139.778962765450217, 35.688217436056505 ], [ 139.779051691234116, 35.688239199642744 ], [ 139.779072391616637, 35.68818305303806 ] ] ] ] } },
{ "type": "Feature", "properties": { "id": 3554, "height": 38.3, "nfloor": 9, "usecode": 121, "shape_leng": 66.082818090200007, "shape_area": 238.73889349699999, "usename": "Office", "geom_Length": 66.072732406501004, "geom_Area": 238.666041487401, "index_right": 0 }, "geometry": { "type": "MultiPolygon", "coordinates": [ [ [ [ 139.779324072846862, 35.688194254423266 ], [ 139.779398749237117, 35.688211594372447 ], [ 139.779432957521976, 35.688113361197559 ], [ 139.779253776224948, 35.688071817125468 ], [ 139.779204845187991, 35.688212047775501 ], [ 139.779309348969747, 35.688236342109889 ], [ 139.779324072846862, 35.688194254423266 ] ] ] ] } },
{ "type": "Feature", "properties": { "id": 3562, "height": 35.6, "nfloor": 8, "usecode": 121, "shape_leng": 70.399894261900002, "shape_area": 222.26719250599999, "usename": "Office", "geom_Length": 70.389310810015374, "geom_Area": 222.20002558692789, "index_right": 0 }, "geometry": { "type": "MultiPolygon", "coordinates": [ [ [ [ 139.779007642698417, 35.688026997129519 ], [ 139.779031503200258, 35.688033678211028 ], [ 139.779089493126122, 35.687894532148128 ], [ 139.778990405457847, 35.687867085662681 ], [ 139.778898772787755, 35.688086528192024 ], [ 139.77897410929026, 35.688107384932614 ], [ 139.779007642698417, 35.688026997129519 ] ] ] ] } },
{ "type": "Feature", "properties": { "id": 4050, "height": 42.8, "nfloor": 9, "usecode": 121, "shape_leng": 116.57260305299999, "shape_area": 692.33592700500003, "usename": "Office", "geom_Length": 116.55478646394967, "geom_Area": 692.12499154891395, "index_right": 0 }, "geometry": { "type": "MultiPolygon", "coordinates": [ [ [ [ 139.778972854970419, 35.688326867035023 ], [ 139.77898102859163, 35.688329034389888 ], [ 139.779007923868164, 35.688261174261072 ], [ 139.778854485398256, 35.688220632714746 ], [ 139.778827370108928, 35.688288853911381 ], [ 139.778683209598739, 35.6882507503691 ], [ 139.7786153646787, 35.688421620025146 ], [ 139.778767256214906, 35.688461799978022 ], [ 139.778760173313799, 35.688479643319106 ], [ 139.778897814760484, 35.688516030756048 ], [ 139.778972854970419, 35.688326867035023 ] ] ] ] } },
{ "type": "Feature", "properties": { "id": 4062, "height": 36.8, "nfloor": 9, "usecode": 121, "shape_leng": 43.501246054399999, "shape_area": 118.105900002, "usename": "Office", "geom_Length": 43.49464902355281, "geom_Area": 118.07003076902184, "index_right": 0 }, "geometry": { "type": "MultiPolygon", "coordinates": [ [ [ [ 139.779479098865295, 35.688010264198738 ], [ 139.779368521603885, 35.687982632099342 ], [ 139.77933199438354, 35.688079874351118 ], [ 139.779442572883283, 35.688107505595795 ], [ 139.779479098865295, 35.688010264198738 ] ] ] ] } },
{ "type": "Feature", "properties": { "id": 4560, "height": 11.8, "nfloor": 3, "usecode": 123, "shape_leng": 34.829580028400002, "shape_area": 64.761999995400004, "usename": "Residence & Commercial Mixed", "geom_Length": 34.824196145539823, "geom_Area": 64.742227416678105, "index_right": 0 }, "geometry": { "type": "MultiPolygon", "coordinates": [ [ [ [ 139.778828654418476, 35.688186909591614 ], [ 139.778702724052152, 35.688152149238405 ], [ 139.778683688294251, 35.688198110441107 ], [ 139.778809618723386, 35.68823287081522 ], [ 139.778828654418476, 35.688186909591614 ] ] ] ] } },
{ "type": "Feature", "properties": { "id": 4562, "height": 16.7, "nfloor": 5, "usecode": 121, "shape_leng": 36.127058805700003, "shape_area": 66.6876450006, "usename": "Office", "geom_Length": 36.121589100043678, "geom_Area": 66.668194540138344, "index_right": 0 }, "geometry": { "type": "MultiPolygon", "coordinates": [ [ [ [ 139.778859737639578, 35.688135905460832 ], [ 139.778724304639127, 35.688099969541369 ], [ 139.77870659655855, 35.688144309662889 ], [ 139.778842027414953, 35.688180245580909 ], [ 139.778859737639578, 35.688135905460832 ] ] ] ] } },
{ "type": "Feature", "properties": { "id": 4569, "height": 22.5, "nfloor": 5, "usecode": 121, "shape_leng": 52.4687590626, "shape_area": 170.05370650099999, "usename": "Office", "geom_Length": 52.460769980187216, "geom_Area": 170.00213460794248, "index_right": 0 }, "geometry": { "type": "MultiPolygon", "coordinates": [ [ [ [ 139.778938515422482, 35.687971080726818 ], [ 139.778786072911572, 35.687929909081774 ], [ 139.778745456322554, 35.688030034371408 ], [ 139.778897899013799, 35.688071205169138 ], [ 139.778938515422482, 35.687971080726818 ] ] ] ] } },
{ "type": "Feature", "properties": { "id": 4571, "height": 33.4, "nfloor": 8, "usecode": 121, "shape_leng": 50.048271416399999, "shape_area": 135.16456898300001, "usename": "Office", "geom_Length": 50.040733205245985, "geom_Area": 135.12348920896289, "index_right": 0 }, "geometry": { "type": "MultiPolygon", "coordinates": [ [ [ [ 139.779178311620655, 35.687912509737032 ], [ 139.779095350441679, 35.687890749044143 ], [ 139.779038792660913, 35.68803845837455 ], [ 139.779121973304285, 35.688059677683249 ], [ 139.779178311620655, 35.687912509737032 ] ] ] ] } },
{ "type": "Feature", "properties": { "id": 5039, "height": 12.3, "nfloor": 3, "usecode": 111, "shape_leng": 56.334319344400001, "shape_area": 178.066567494, "usename": "Public", "geom_Length": 56.325675868614368, "geom_Area": 178.01301677196909, "index_right": 0 }, "geometry": { "type": "MultiPolygon", "coordinates": [ [ [ [ 139.778774519612369, 35.688502364317223 ], [ 139.778602638187436, 35.688450097872391 ], [ 139.778590576546577, 35.688476501628749 ], [ 139.778607698011228, 35.688481737707015 ], [ 139.778575165908279, 35.68855302152356 ], [ 139.778729926018769, 35.688600052853175 ], [ 139.778774519612369, 35.688502364317223 ] ] ] ] } },
{ "type": "Feature", "properties": { "id": 5050, "height": 27.5, "nfloor": 6, "usecode": 121, "shape_leng": 29.195853255199999, "shape_area": 48.753282007499998, "usename": "Office", "geom_Length": 29.191463904263063, "geom_Area": 48.738733985664943, "index_right": 0 }, "geometry": { "type": "MultiPolygon", "coordinates": [ [ [ [ 139.77934268881981, 35.688035909289212 ], [ 139.779243048177875, 35.68800963305663 ], [ 139.779226334143232, 35.688053522634519 ], [ 139.779324317548713, 35.688080788233314 ], [ 139.77934268881981, 35.688035909289212 ] ] ] ] } }
]
}
