{"type": "FeatureCollection", "features": [{"type": "Feature", "geometry": {"type": "Polygon", "coordinates": [[[139.7735, 35.684], [139.77356, 35.684], [139.77356, 35.68412], [139.7735, 35.68412], [139.7735, 35.684]]]}, "properties": {"ix": 0, "iy": 0, "hour": 14, "heat_value": 2.0, "heat_bucket": "extreme"}}, {"type": "Feature", "geometry": {"type": "Polygon", "coordinates": [[[139.7735, 35.68412], [139.77356, 35.68412], [139.77356, 35.684239999999996], [139.7735, 35.684239999999996], [139.7735, 35.68412]]]}, "properties": {"ix": 0, "iy": 1, "hour": 14, "heat_value": 2.0, "heat_bucket": "extreme"}}, {"type": "Feature", "geometry": {"type": "Polygon", "coordinates": [[[139.7735, 35.684239999999996], [139.77356, 35.684239999999996], [139.77356, 35.68436], [139.7735, 35.68436], [139.7735, 35.684239999999996]]]}, "properties": {"ix": 0, "iy": 2, "hour": 14, "heat_value": 2.0, "heat_bucket": "extreme"}}, {"type": "Feature", "geometry": {"type": "Polygon", "coordinates": [[[139.7735, 35.68436], [139.77356, 35.68436], [139.77356, 35.68448], [139.7735, 35.68448], [139.7735, 35.68436]]]}, "properties": {"ix": 0, "iy": 3, "hour": 14, "heat_value": 1.7771, "heat_bucket": "extreme"}}, {"type": "Feature", "geometry": {"type": "Polygon", "coordinates": [[[139.7735, 35.68448], [139.77356, 35.68448], [139.77356, 35.6846], [139.7735, 35.6846], [139.7735, 35.68448]]]}, "properties": {"ix": 0, "iy": 4, "hour": 14, "heat_value": 1.8315, "heat_bucket": "extreme"}}, {"type": "Feature", "geometry": {"type": "Polygon", "coordinates": [[[139.7735, 35.6846], [139.77356, 35.6846], [139.77356, 35.68472], [139.7735, 35.68472], [139.7735, 35.6846]]]}, "properties": {"ix": 0, "iy": 5, "hour": 14, "heat_value": 1.7472, "heat_bucket": "extreme"}}, {"type": "Feature", "geometry": {"type": "Polygon", "coordinates": [[[139.7735, 35.68472], [139.77356, 35.68472], [139.77356, 35.68484], [139.7735, 35.68484], [139.7735, 35.68472]]]}, "properties": {"ix": 0, "iy": 6, "hour": 14, "heat_value": 1.7425, "heat_bucket": "extreme"}}, {"type": "Feature", "geometry": {"type": "Polygon", "coordinates": [[[139.7735, 35.68484], [139.77356, 35.68484], [139.77356, 35.684960000000004], [139.7735, 35.684960000000004], [139.7735, 35.68484]]]}, "properties": {"ix": 0, "iy": 7, "hour": 14, "heat_value": 1.6214, "heat_bucket": "extreme"}}, {"type": "Feature", "geometry": {"type": "Polygon", "coordinates": [[[139.7735, 35.684960000000004], [139.77356, 35.684960000000004], [139.77356, 35.68508], [139.7735, 35.68508], [139.7735, 35.684960000000004]]]}, "properties": {"ix": 0, "iy": 8, "hour": 14, "heat_value": 1.6581, "heat_bucket": "extreme"}}, {"type": "Feature", "geometry": {"type": "Polygon", "coordinates": [[[139.7735, 35.68508], [139.77356, 35.68508], [139.77356, 35.6852], [139.7735, 35.6852], [139.7735, 35.68508]]]}, "properties": {"ix": 0, "iy": 9, "hour": 14, "heat_value": 1.5224, "heat_bucket": "extreme"}}, {"type": "Feature", "geometry": {"type": "Polygon", "coordinates": [[[139.77356, 35.684], [139.77362000000002, 35.684], [139.77362000000002, 35.68412], [139.77356, 35.68412], [139.77356, 35.684]]]}, "properties": {"ix": 1, "iy": 0, "hour": 14, "heat_value": 1.9501, "heat_bucket": "extreme"}}, {"type": "Feature", "geometry": {"type": "Polygon", "coordinates": [[[139.77356, 35.68412], [139.77362000000002, 35.68412], [139.77362000000002, 35.684239999999996], [139.77356, 35.684239999999996], [139.77356, 35.68412]]]}, "properties": {"ix": 1, "iy": 1, "hour": 14, "heat_value": 2.0, "heat_bucket": "extreme"}}, {"type": "Feature", "geometry": {"type": "Polygon", "coordinates": [[[139.77356, 35.684239999999996], [139.77362000000002, 35.684239999999996], [139.77362000000002, 35.68436], [139.77356, 35.68436], [139.77356, 35.684239999999996]]]}, "properties": {"ix": 1, "iy": 2, "hour": 14, "heat_value": 2.0, "heat_bucket": "extreme"}}, {"type": "Feature", "geometry": {"type": "Polygon", "coordinates": [[[139.77356, 35.68436], [139.77362000000002, 35.68436], [139.77362000000002, 35.68448], [139.77356, 35.68448], [139.77356, 35.68436]]]}, "properties": {"ix": 1, "iy": 3, "hour": 14, "heat_value": 1.7731, "heat_bucket": "extreme"}}, {"type": "Feature", "geometry": {"type": "Polygon", "coordinates": [[[139.77356, 35.68448], [139.77362000000002, 35.68448], [139.77362000000002, 35.6846], [139.77356, 35.6846], [139.77356, 35.68448]]]}, "properties": {"ix": 1, "iy": 4, "hour": 14, "heat_value": 1.8108, "heat_bucket": "extreme"}}, {"type": "Feature", "geometry": {"type": "Polygon", "coordinates": [[[139.77356, 35.6846], [139.77362000000002, 35.6846], [139.77362000000002, 35.68472], [139.77356, 35.68472], [139.77356, 35.6846]]]}, "properties": {"ix": 1, "iy": 5, "hour": 14, "heat_value": 1.7727, "heat_bucket": "extreme"}}, {"type": "Feature", "geometry": {"type": "Polygon", "coordinates": [[[139.77356, 35.68472], [139.77362000000002, 35.68472], [139.77362000000002, 35.68484], [139.77356, 35.68484], [139.77356, 35.68472]]]}, "properties": {"ix": 1, "iy": 6, "hour": 14, "heat_value": 1.745, "heat_bucket": "extreme"}}, {"type": "Feature", "geometry": {"type": "Polygon", "coordinates": [[[139.77356, 35.68484], [139.77362000000002, 35.68484], [139.77362000000002, 35.684960000000004], [139.77356, 35.684960000000004], [139.77356, 35.68484]]]}, "properties": {"ix": 1, "iy": 7, "hour": 14, "heat_value": 1.5877, "heat_bucket": "extreme"}}, {"type": "Feature", "geometry": {"type": "Polygon", "coordinates": [[[139.77356, 35.684960000000004], [139.77362000000002, 35.684960000000004], [139.77362000000002, 35.68508], [139.77356, 35.68508], [139.77356, 35.684960000000004]]]}, "properties": {"ix": 1, "iy": 8, "hour": 14, "heat_value": 1.5319, "heat_bucket": "extreme"}}, {"type": "Feature", "geometry": {"type": "Polygon", "coordinates": [[[139.77356, 35.68508], [139.77362000000002, 35.68508], [139.77362000000002, 35.6852], [139.77356, 35.6852], [139.77356, 35.68508]]]}, "properties": {"ix": 1, "iy": 9, "hour": 14, "heat_value": 1.5777, "heat_bucket": "extreme"}}, {"type": "Feature", "geometry": {"type": "Polygon", "coordinates": [[[139.77362000000002, 35.684], [139.77368, 35.684], [139.77368, 35.68412], [139.77362000000002, 35.68412], [139.77362000000002, 35.684]]]}, "properties": {"ix": 2, "iy": 0, "hour": 14, "heat_value": 2.0, "heat_bucket": "extreme"}}, {"type": "Feature", "geometry": {"type": "Polygon", "coordinates": [[[139.77362000000002, 35.68412], [139.77368, 35.68412], [139.77368, 35.684239999999996], [139.77362000000002, 35.684239999999996], [139.77362000000002, 35.68412]]]}, "properties": {"ix": 2, "iy": 1, "hour": 14, "heat_value": 2.0, "heat_bucket": "extreme"}}, {"type": "Feature", "geometry": {"type": "Polygon", "coordinates": [[[139.77362000000002, 35.684239999999996], [139.77368, 35.684239999999996], [139.77368, 35.68436], [139.77362000000002, 35.68436], [139.77362000000002, 35.684239999999996]]]}, "properties": {"ix": 2, "iy": 2, "hour": 14, "heat_value": 2.0, "heat_bucket": "extreme"}}, {"type": "Feature", "geometry": {"type": "Polygon", "coordinates": [[[139.77362000000002, 35.68436], [139.77368, 35.68436], [139.77368, 35.68448], [139.77362000000002, 35.68448], [139.77362000000002, 35.68436]]]}, "properties": {"ix": 2, "iy": 3, "hour": 14, "heat_value": 1.7382, "heat_bucket": "extreme"}}, {"type": "Feature", "geometry": {"type": "Polygon", "coordinates": [[[139.77362000000002, 35.68448], [139.77368, 35.68448], [139.77368, 35.6846], [139.77362000000002, 35.6846], [139.77362000000002, 35.68448]]]}, "properties": {"ix": 2, "iy": 4, "hour": 14, "heat_value": 1.7302, "heat_bucket": "extreme"}}, {"type": "Feature", "geometry": {"type": "Polygon", "coordinates": [[[139.77362000000002, 35.6846], [139.77368, 35.6846], [139.77368, 35.68472], [139.77362000000002, 35.68472], [139.77362000000002, 35.6846]]]}, "properties": {"ix": 2, "iy": 5, "hour": 14, "heat_value": 1.7581, "heat_bucket": "extreme"}}, {"type": "Feature", "geometry": {"type": "Polygon", "coordinates": [[[139.77362000000002, 35.68472], [139.77368, 35.68472], [139.77368, 35.68484], [139.77362000000002, 35.68484], [139.77362000000002, 35.68472]]]}, "properties": {"ix": 2, "iy": 6, "hour": 14, "heat_value": 1.6978, "heat_bucket": "extreme"}}, {"type": "Feature", "geometry": {"type": "Polygon", "coordinates": [[[139.77362000000002, 35.68484], [139.77368, 35.68484], [139.77368, 35.684960000000004], [139.77362000000002, 35.684960000000004], [139.77362000000002, 35.68484]]]}, "properties": {"ix": 2, "iy": 7, "hour": 14, "heat_value": 1.5435, "heat_bucket": "extreme"}}, {"type": "Feature", "geometry": {"type": "Polygon", "coordinates": [[[139.77362000000002, 35.684960000000004], [139.77368, 35.684960000000004], [139.77368, 35.68508], [139.77362000000002, 35.68508], [139.77362000000002, 35.684960000000004]]]}, "properties": {"ix": 2, "iy": 8, "hour": 14, "heat_value": 1.5431, "heat_bucket": "extreme"}}, {"type": "Feature", "geometry": {"type": "Polygon", "coordinates": [[[139.77362000000002, 35.68508], [139.77368, 35.68508], [139.77368, 35.6852], [139.77362000000002, 35.6852], [139.77362000000002, 35.68508]]]}, "properties": {"ix": 2, "iy": 9, "hour": 14, "heat_value": 1.6242, "heat_bucket": "extreme"}}, {"type": "Feature", "geometry": {"type": "Polygon", "coordinates": [[[139.77368, 35.684], [139.77374, 35.684], [139.77374, 35.68412], [139.77368, 35.68412], [139.77368, 35.684]]]}, "properties": {"ix": 3, "iy": 0, "hour": 14, "heat_value": 2.0, "heat_bucket": "extreme"}}, {"type": "Feature", "geometry": {"type": "Polygon", "coordinates": [[[139.77368, 35.68412], [139.77374, 35.68412], [139.77374, 35.684239999999996], [139.77368, 35.684239999999996], [139.77368, 35.68412]]]}, "properties": {"ix": 3, "iy": 1, "hour": 14, "heat_value": 2.0, "heat_bucket": "extreme"}}, {"type": "Feature", "geometry": {"type": "Polygon", "coordinates": [[[139.77368, 35.684239999999996], [139.77374, 35.684239999999996], [139.77374, 35.68436], [139.77368, 35.68436], [139.77368, 35.684239999999996]]]}, "properties": {"ix": 3, "iy": 2, "hour": 14, "heat_value": 2.0, "heat_bucket": "extreme"}}, {"type": "Feature", "geometry": {"type": "Polygon", "coordinates": [[[139.77368, 35.68436], [139.77374, 35.68436], [139.77374, 35.68448], [139.77368, 35.68448], [139.77368, 35.68436]]]}, "properties": {"ix": 3, "iy": 3, "hour": 14, "heat_value": 1.7212, "heat_bucket": "extreme"}}, {"type": "Feature", "geometry": {"type": "Polygon", "coordinates": [[[139.77368, 35.68448], [139.77374, 35.68448], [139.77374, 35.6846], [139.77368, 35.6846], [139.77368, 35.68448]]]}, "properties": {"ix": 3, "iy": 4, "hour": 14, "heat_value": 1.7767, "heat_bucket": "extreme"}}, {"type": "Feature", "geometry": {"type": "Polygon", "coordinates": [[[139.77368, 35.6846], [139.77374, 35.6846], [139.77374, 35.68472], [139.77368, 35.68472], [139.77368, 35.6846]]]}, "properties": {"ix": 3, "iy": 5, "hour": 14, "heat_value": 1.7692, "heat_bucket": "extreme"}}, {"type": "Feature", "geometry": {"type": "Polygon", "coordinates": [[[139.77368, 35.68472], [139.77374, 35.68472], [139.77374, 35.68484], [139.77368, 35.68484], [139.77368, 35.68472]]]}, "properties": {"ix": 3, "iy": 6, "hour": 14, "heat_value": 1.8367, "heat_bucket": "extreme"}}, {"type": "Feature", "geometry": {"type": "Polygon", "coordinates": [[[139.77368, 35.68484], [139.77374, 35.68484], [139.77374, 35.684960000000004], [139.77368, 35.684960000000004], [139.77368, 35.68484]]]}, "properties": {"ix": 3, "iy": 7, "hour": 14, "heat_value": 1.5485, "heat_bucket": "extreme"}}, {"type": "Feature", "geometry": {"type": "Polygon", "coordinates": [[[139.77368, 35.684960000000004], [139.77374, 35.684960000000004], [139.77374, 35.68508], [139.77368, 35.68508], [139.77368, 35.684960000000004]]]}, "properties": {"ix": 3, "iy": 8, "hour": 14, "heat_value": 1.633, "heat_bucket": "extreme"}}, {"type": "Feature", "geometry": {"type": "Polygon", "coordinates": [[[139.77368, 35.68508], [139.77374, 35.68508], [139.77374, 35.6852], [139.77368, 35.6852], [139.77368, 35.68508]]]}, "properties": {"ix": 3, "iy": 9, "hour": 14, "heat_value": 1.5929, "heat_bucket": "extreme"}}, {"type": "Feature", "geometry": {"type": "Polygon", "coordinates": [[[139.77374, 35.684], [139.7738, 35.684], [139.7738, 35.68412], [139.77374, 35.68412], [139.77374, 35.684]]]}, "properties": {"ix": 4, "iy": 0, "hour": 14, "heat_value": 2.0, "heat_bucket": "extreme"}}, {"type": "Feature", "geometry": {"type": "Polygon", "coordinates": [[[139.77374, 35.68412], [139.7738, 35.68412], [139.7738, 35.684239999999996], [139.77374, 35.684239999999996], [139.77374, 35.68412]]]}, "properties": {"ix": 4, "iy": 1, "hour": 14, "heat_value": 1.9796, "heat_bucket": "extreme"}}, {"type": "Feature", "geometry": {"type": "Polygon", "coordinates": [[[139.77374, 35.684239999999996], [139.7738, 35.684239999999996], [139.7738, 35.68436], [139.77374, 35.68436], [139.77374, 35.684239999999996]]]}, "properties": {"ix": 4, "iy": 2, "hour": 14, "heat_value": 2.0, "heat_bucket": "extreme"}}, {"type": "Feature", "geometry": {"type": "Polygon", "coordinates": [[[139.77374, 35.68436], [139.7738, 35.68436], [139.7738, 35.68448], [139.77374, 35.68448], [139.77374, 35.68436]]]}, "properties": {"ix": 4, "iy": 3, "hour": 14, "heat_value": 1.8171, "heat_bucket": "extreme"}}, {"type": "Feature", "geometry": {"type": "Polygon", "coordinates": [[[139.77374, 35.68448], [139.7738, 35.68448], [139.7738, 35.6846], [139.77374, 35.6846], [139.77374, 35.68448]]]}, "properties": {"ix": 4, "iy": 4, "hour": 14, "heat_value": 1.8499, "heat_bucket": "extreme"}}, {"type": "Feature", "geometry": {"type": "Polygon", "coordinates": [[[139.77374, 35.6846], [139.7738, 35.6846], [139.7738, 35.68472], [139.77374, 35.68472], [139.77374, 35.6846]]]}, "properties": {"ix": 4, "iy": 5, "hour": 14, "heat_value": 1.7903, "heat_bucket": "extreme"}}, {"type": "Feature", "geometry": {"type": "Polygon", "coordinates": [[[139.77374, 35.68472], [139.7738, 35.68472], [139.7738, 35.68484], [139.77374, 35.68484], [139.77374, 35.68472]]]}, "properties": {"ix": 4, "iy": 6, "hour": 14, "heat_value": 1.8181, "heat_bucket": "extreme"}}, {"type": "Feature", "geometry": {"type": "Polygon", "coordinates": [[[139.77374, 35.68484], [139.7738, 35.68484], [139.7738, 35.684960000000004], [139.77374, 35.684960000000004], [139.77374, 35.68484]]]}, "properties": {"ix": 4, "iy": 7, "hour": 14, "heat_value": 1.5596, "heat_bucket": "extreme"}}, {"type": "Feature", "geometry": {"type": "Polygon", "coordinates": [[[139.77374, 35.684960000000004], [139.7738, 35.684960000000004], [139.7738, 35.68508], [139.77374, 35.68508], [139.77374, 35.684960000000004]]]}, "properties": {"ix": 4, "iy": 8, "hour": 14, "heat_value": 1.5614, "heat_bucket": "extreme"}}, {"type": "Feature", "geometry": {"type": "Polygon", "coordinates": [[[139.77374, 35.68508], [139.7738, 35.68508], [139.7738, 35.6852], [139.77374, 35.6852], [139.77374, 35.68508]]]}, "properties": {"ix": 4, "iy": 9, "hour": 14, "heat_value": 1.5469, "heat_bucket": "extreme"}}, {"type": "Feature", "geometry": {"type": "Polygon", "coordinates": [[[139.7738, 35.684], [139.77386, 35.684], [139.77386, 35.68412], [139.7738, 35.68412], [139.7738, 35.684]]]}, "properties": {"ix": 5, "iy": 0, "hour": 14, "heat_value": 2.0, "heat_bucket": "extreme"}}, {"type": "Feature", "geometry": {"type": "Polygon", "coordinates": [[[139.7738, 35.68412], [139.77386, 35.68412], [139.77386, 35.684239999999996], [139.7738, 35.684239999999996], [139.7738, 35.68412]]]}, "properties": {"ix": 5, "iy": 1, "hour": 14, "heat_value": 2.0, "heat_bucket": "extreme"}}, {"type": "Feature", "geometry": {"type": "Polygon", "coordinates": [[[139.7738, 35.684239999999996], [139.77386, 35.684239999999996], [139.77386, 35.68436], [139.7738, 35.68436], [139.7738, 35.684239999999996]]]}, "properties": {"ix": 5, "iy": 2, "hour": 14, "heat_value": 2.0, "heat_bucket": "extreme"}}, {"type": "Feature", "geometry": {"type": "Polygon", "coordinates": [[[139.7738, 35.68436], [139.77386, 35.68436], [139.77386, 35.68448], [139.7738, 35.68448], [139.7738, 35.68436]]]}, "properties": {"ix": 5, "iy": 3, "hour": 14, "heat_value": 1.7636, "heat_bucket": "extreme"}}, {"type": "Feature", "geometry": {"type": "Polygon", "coordinates": [[[139.7738, 35.68448], [139.77386, 35.68448], [139.77386, 35.6846], [139.7738, 35.6846], [139.7738, 35.68448]]]}, "properties": {"ix": 5, "iy": 4, "hour": 14, "heat_value": 1.8078, "heat_bucket": "extreme"}}, {"type": "Feature", "geometry": {"type": "Polygon", "coordinates": [[[139.7738, 35.6846], [139.77386, 35.6846], [139.77386, 35.68472], [139.7738, 35.68472], [139.7738, 35.6846]]]}, "properties": {"ix": 5, "iy": 5, "hour": 14, "heat_value": 1.7962, "heat_bucket": "extreme"}}, {"type": "Feature", "geometry": {"type": "Polygon", "coordinates": [[[139.7738, 35.68472], [139.77386, 35.68472], [139.77386, 35.68484], [139.7738, 35.68484], [139.7738, 35.68472]]]}, "properties": {"ix": 5, "iy": 6, "hour": 14, "heat_value": 1.7384, "heat_bucket": "extreme"}}, {"type": "Feature", "geometry": {"type": "Polygon", "coordinates": [[[139.7738, 35.68484], [139.77386, 35.68484], [139.77386, 35.684960000000004], [139.7738, 35.684960000000004], [139.7738, 35.68484]]]}, "properties": {"ix": 5, "iy": 7, "hour": 14, "heat_value": 1.6658, "heat_bucket": "extreme"}}, {"type": "Feature", "geometry": {"type": "Polygon", "coordinates": [[[139.7738, 35.684960000000004], [139.77386, 35.684960000000004], [139.77386, 35.68508], [139.7738, 35.68508], [139.7738, 35.684960000000004]]]}, "properties": {"ix": 5, "iy": 8, "hour": 14, "heat_value": 1.5929, "heat_bucket": "extreme"}}, {"type": "Feature", "geometry": {"type": "Polygon", "coordinates": [[[139.7738, 35.68508], [139.77386, 35.68508], [139.77386, 35.6852], [139.7738, 35.6852], [139.7738, 35.68508]]]}, "properties": {"ix": 5, "iy": 9, "hour": 14, "heat_value": 1.5805, "heat_bucket": "extreme"}}, {"type": "Feature", "geometry": {"type": "Polygon", "coordinates": [[[139.77386, 35.684], [139.77392, 35.684], [139.77392, 35.68412], [139.77386, 35.68412], [139.77386, 35.684]]]}, "properties": {"ix": 6, "iy": 0, "hour": 14, "heat_value": 2.0, "heat_bucket": "extreme"}}, {"type": "Feature", "geometry": {"type": "Polygon", "coordinates": [[[139.77386, 35.68412], [139.77392, 35.68412], [139.77392, 35.684239999999996], [139.77386, 35.684239999999996], [139.77386, 35.68412]]]}, "properties": {"ix": 6, "iy": 1, "hour": 14, "heat_value": 2.0, "heat_bucket": "extreme"}}, {"type": "Feature", "geometry": {"type": "Polygon", "coordinates": [[[139.77386, 35.684239999999996], [139.77392, 35.684239999999996], [139.77392, 35.68436], [139.77386, 35.68436], [139.77386, 35.684239999999996]]]}, "properties": {"ix": 6, "iy": 2, "hour": 14, "heat_value": 2.0, "heat_bucket": "extreme"}}, {"type": "Feature", "geometry": {"type": "Polygon", "coordinates": [[[139.77386, 35.68436], [139.77392, 35.68436], [139.77392, 35.68448], [139.77386, 35.68448], [139.77386, 35.68436]]]}, "properties": {"ix": 6, "iy": 3, "hour": 14, "heat_value": 1.8068, "heat_bucket": "extreme"}}, {"type": "Feature", "geometry": {"type": "Polygon", "coordinates": [[[139.77386, 35.68448], [139.77392, 35.68448], [139.77392, 35.6846], [139.77386, 35.6846], [139.77386, 35.68448]]]}, "properties": {"ix": 6, "iy": 4, "hour": 14, "heat_value": 1.7265, "heat_bucket": "extreme"}}, {"type": "Feature", "geometry": {"type": "Polygon", "coordinates": [[[139.77386, 35.6846], [139.77392, 35.6846], [139.77392, 35.68472], [139.77386, 35.68472], [139.77386, 35.6846]]]}, "properties": {"ix": 6, "iy": 5, "hour": 14, "heat_value": 1.748, "heat_bucket": "extreme"}}, {"type": "Feature", "geometry": {"type": "Polygon", "coordinates": [[[139.77386, 35.68472], [139.77392, 35.68472], [139.77392, 35.68484], [139.77386, 35.68484], [139.77386, 35.68472]]]}, "properties": {"ix": 6, "iy": 6, "hour": 14, "heat_value": 1.667, "heat_bucket": "extreme"}}, {"type": "Feature", "geometry": {"type": "Polygon", "coordinates": [[[139.77386, 35.68484], [139.77392, 35.68484], [139.77392, 35.684960000000004], [139.77386, 35.684960000000004], [139.77386, 35.68484]]]}, "properties": {"ix": 6, "iy": 7, "hour": 14, "heat_value": 1.641, "heat_bucket": "extreme"}}, {"type": "Feature", "geometry": {"type": "Polygon", "coordinates": [[[139.77386, 35.684960000000004], [139.77392, 35.684960000000004], [139.77392, 35.68508], [139.77386, 35.68508], [139.77386, 35.684960000000004]]]}, "properties": {"ix": 6, "iy": 8, "hour": 14, "heat_value": 1.4851, "heat_bucket": "extreme"}}, {"type": "Feature", "geometry": {"type": "Polygon", "coordinates": [[[139.77386, 35.68508], [139.77392, 35.68508], [139.77392, 35.6852], [139.77386, 35.6852], [139.77386, 35.68508]]]}, "properties": {"ix": 6, "iy": 9, "hour": 14, "heat_value": 1.6141, "heat_bucket": "extreme"}}, {"type": "Feature", "geometry": {"type": "Polygon", "coordinates": [[[139.77392, 35.684], [139.77398, 35.684], [139.77398, 35.68412], [139.77392, 35.68412], [139.77392, 35.684]]]}, "properties": {"ix": 7, "iy": 0, "hour": 14, "heat_value": 2.0, "heat_bucket": "extreme"}}, {"type": "Feature", "geometry": {"type": "Polygon", "coordinates": [[[139.77392, 35.68412], [139.77398, 35.68412], [139.77398, 35.684239999999996], [139.77392, 35.684239999999996], [139.77392, 35.68412]]]}, "properties": {"ix": 7, "iy": 1, "hour": 14, "heat_value": 2.0, "heat_bucket": "extreme"}}, {"type": "Feature", "geometry": {"type": "Polygon", "coordinates": [[[139.77392, 35.684239999999996], [139.77398, 35.684239999999996], [139.77398, 35.68436], [139.77392, 35.68436], [139.77392, 35.684239999999996]]]}, "properties": {"ix": 7, "iy": 2, "hour": 14, "heat_value": 2.0, "heat_bucket": "extreme"}}, {"type": "Feature", "geometry": {"type": "Polygon", "coordinates": [[[139.77392, 35.68436], [139.77398, 35.68436], [139.77398, 35.68448], [139.77392, 35.68448], [139.77392, 35.68436]]]}, "properties": {"ix": 7, "iy": 3, "hour": 14, "heat_value": 1.7933, "heat_bucket": "extreme"}}, {"type": "Feature", "geometry": {"type": "Polygon", "coordinates": [[[139.77392, 35.68448], [139.77398, 35.68448], [139.77398, 35.6846], [139.77392, 35.6846], [139.77392, 35.68448]]]}, "properties": {"ix": 7, "iy": 4, "hour": 14, "heat_value": 1.8106, "heat_bucket": "extreme"}}, {"type": "Feature", "geometry": {"type": "Polygon", "coordinates": [[[139.77392, 35.6846], [139.77398, 35.6846], [139.77398, 35.68472], [139.77392, 35.68472], [139.77392, 35.6846]]]}, "properties": {"ix": 7, "iy": 5, "hour": 14, "heat_value": 1.8686, "heat_bucket": "extreme"}}, {"type": "Feature", "geometry": {"type": "Polygon", "coordinates": [[[139.77392, 35.68472], [139.77398, 35.68472], [139.77398, 35.68484], [139.77392, 35.68484], [139.77392, 35.68472]]]}, "properties": {"ix": 7, "iy": 6, "hour": 14, "heat_value": 1.7979, "heat_bucket": "extreme"}}, {"type": "Feature", "geometry": {"type": "Polygon", "coordinates": [[[139.77392, 35.68484], [139.77398, 35.68484], [139.77398, 35.684960000000004], [139.77392, 35.684960000000004], [139.77392, 35.68484]]]}, "properties": {"ix": 7, "iy": 7, "hour": 14, "heat_value": 1.6241, "heat_bucket": "extreme"}}, {"type": "Feature", "geometry": {"type": "Polygon", "coordinates": [[[139.77392, 35.684960000000004], [139.77398, 35.684960000000004], [139.77398, 35.68508], [139.77392, 35.68508], [139.77392, 35.684960000000004]]]}, "properties": {"ix": 7, "iy": 8, "hour": 14, "heat_value": 1.5501, "heat_bucket": "extreme"}}, {"type": "Feature", "geometry": {"type": "Polygon", "coordinates": [[[139.77392, 35.68508], [139.77398, 35.68508], [139.77398, 35.6852], [139.77392, 35.6852], [139.77392, 35.68508]]]}, "properties": {"ix": 7, "iy": 9, "hour": 14, "heat_value": 1.6157, "heat_bucket": "extreme"}}, {"type": "Feature", "geometry": {"type": "Polygon", "coordinates": [[[139.77398, 35.684], [139.77404, 35.684], [139.77404, 35.68412], [139.77398, 35.68412], [139.77398, 35.684]]]}, "properties": {"ix": 8, "iy": 0, "hour": 14, "heat_value": 2.0, "heat_bucket": "extreme"}}, {"type": "Feature", "geometry": {"type": "Polygon", "coordinates": [[[139.77398, 35.68412], [139.77404, 35.68412], [139.77404, 35.684239999999996], [139.77398, 35.684239999999996], [139.77398, 35.68412]]]}, "properties": {"ix": 8, "iy": 1, "hour": 14, "heat_value": 2.0, "heat_bucket": "extreme"}}, {"type": "Feature", "geometry": {"type": "Polygon", "coordinates": [[[139.77398, 35.684239999999996], [139.77404, 35.684239999999996], [139.77404, 35.68436], [139.77398, 35.68436], [139.77398, 35.684239999999996]]]}, "properties": {"ix": 8, "iy": 2, "hour": 14, "heat_value": 2.0, "heat_bucket": "extreme"}}, {"type": "Feature", "geometry": {"type": "Polygon", "coordinates": [[[139.77398, 35.68436], [139.77404, 35.68436], [139.77404, 35.68448], [139.77398, 35.68448], [139.77398, 35.68436]]]}, "properties": {"ix": 8, "iy": 3, "hour": 14, "heat_value": 2.0, "heat_bucket": "extreme"}}, {"type": "Feature", "geometry": {"type": "Polygon", "coordinates": [[[139.77398, 35.68448], [139.77404, 35.68448], [139.77404, 35.6846], [139.77398, 35.6846], [139.77398, 35.68448]]]}, "properties": {"ix": 8, "iy": 4, "hour": 14, "heat_value": 2.0, "heat_bucket": "extreme"}}, {"type": "Feature", "geometry": {"type": "Polygon", "coordinates": [[[139.77398, 35.6846], [139.77404, 35.6846], [139.77404, 35.68472], [139.77398, 35.68472], [139.77398, 35.6846]]]}, "properties": {"ix": 8, "iy": 5, "hour": 14, "heat_value": 2.0, "heat_bucket": "extreme"}}, {"type": "Feature", "geometry": {"type": "Polygon", "coordinates": [[[139.77398, 35.68472], [139.77404, 35.68472], [139.77404, 35.68484], [139.77398, 35.68484], [139.77398, 35.68472]]]}, "properties": {"ix": 8, "iy": 6, "hour": 14, "heat_value": 1.7546, "heat_bucket": "extreme"}}, {"type": "Feature", "geometry": {"type": "Polygon", "coordinates": [[[139.77398, 35.68484], [139.77404, 35.68484], [139.77404, 35.684960000000004], [139.77398, 35.684960000000004], [139.77398, 35.68484]]]}, "properties": {"ix": 8, "iy": 7, "hour": 14, "heat_value": 1.543, "heat_bucket": "extreme"}}, {"type": "Feature", "geometry": {"type": "Polygon", "coordinates": [[[139.77398, 35.684960000000004], [139.77404, 35.684960000000004], [139.77404, 35.68508], [139.77398, 35.68508], [139.77398, 35.684960000000004]]]}, "properties": {"ix": 8, "iy": 8, "hour": 14, "heat_value": 1.6174, "heat_bucket": "extreme"}}, {"type": "Feature", "geometry": {"type": "Polygon", "coordinates": [[[139.77398, 35.68508], [139.77404, 35.68508], [139.77404, 35.6852], [139.77398, 35.6852], [139.77398, 35.68508]]]}, "properties": {"ix": 8, "iy": 9, "hour": 14, "heat_value": 1.4952, "heat_bucket": "extreme"}}, {"type": "Feature", "geometry": {"type": "Polygon", "coordinates": [[[139.77404, 35.684], [139.7741, 35.684], [139.7741, 35.68412], [139.77404, 35.68412], [139.77404, 35.684]]]}, "properties": {"ix": 9, "iy": 0, "hour": 14, "heat_value": 2.0, "heat_bucket": "extreme"}}, {"type": "Feature", "geometry": {"type": "Polygon", "coordinates": [[[139.77404, 35.68412], [139.7741, 35.68412], [139.7741, 35.684239999999996], [139.77404, 35.684239999999996], [139.77404, 35.68412]]]}, "properties": {"ix": 9, "iy": 1, "hour": 14, "heat_value": 2.0, "heat_bucket": "extreme"}}, {"type": "Feature", "geometry": {"type": "Polygon", "coordinates": [[[139.77404, 35.684239999999996], [139.7741, 35.684239999999996], [139.7741, 35.68436], [139.77404, 35.68436], [139.77404, 35.684239999999996]]]}, "properties": {"ix": 9, "iy": 2, "hour": 14, "heat_value": 1.9446, "heat_bucket": "extreme"}}, {"type": "Feature", "geometry": {"type": "Polygon", "coordinates": [[[139.77404, 35.68436], [139.7741, 35.68436], [139.7741, 35.68448], [139.77404, 35.68448], [139.77404, 35.68436]]]}, "properties": {"ix": 9, "iy": 3, "hour": 14, "heat_value": 1.9953, "heat_bucket": "extreme"}}, {"type": "Feature", "geometry": {"type": "Polygon", "coordinates": [[[139.77404, 35.68448], [139.7741, 35.68448], [139.7741, 35.6846], [139.77404, 35.6846], [139.77404, 35.68448]]]}, "properties": {"ix": 9, "iy": 4, "hour": 14, "heat_value": 2.0, "heat_bucket": "extreme"}}, {"type": "Feature", "geometry": {"type": "Polygon", "coordinates": [[[139.77404, 35.6846], [139.7741, 35.6846], [139.7741, 35.68472], [139.77404, 35.68472], [139.77404, 35.6846]]]}, "properties": {"ix": 9, "iy": 5, "hour": 14, "heat_value": 1.9475, "heat_bucket": "extreme"}}, {"type": "Feature", "geometry": {"type": "Polygon", "coordinates": [[[139.77404, 35.68472], [139.7741, 35.68472], [139.7741, 35.68484], [139.77404, 35.68484], [139.77404, 35.68472]]]}, "properties": {"ix": 9, "iy": 6, "hour": 14, "heat_value": 1.9099, "heat_bucket": "extreme"}}, {"type": "Feature", "geometry": {"type": "Polygon", "coordinates": [[[139.77404, 35.68484], [139.7741, 35.68484], [139.7741, 35.684960000000004], [139.77404, 35.684960000000004], [139.77404, 35.68484]]]}, "properties": {"ix": 9, "iy": 7, "hour": 14, "heat_value": 1.4506, "heat_bucket": "extreme"}}, {"type": "Feature", "geometry": {"type": "Polygon", "coordinates": [[[139.77404, 35.684960000000004], [139.7741, 35.684960000000004], [139.7741, 35.68508], [139.77404, 35.68508], [139.77404, 35.684960000000004]]]}, "properties": {"ix": 9, "iy": 8, "hour": 14, "heat_value": 1.6518, "heat_bucket": "extreme"}}, {"type": "Feature", "geometry": {"type": "Polygon", "coordinates": [[[139.77404, 35.68508], [139.7741, 35.68508], [139.7741, 35.6852], [139.77404, 35.6852], [139.77404, 35.68508]]]}, "properties": {"ix": 9, "iy": 9, "hour": 14, "heat_value": 1.6579, "heat_bucket": "extreme"}}, {"type": "Feature", "geometry": {"type": "Polygon", "coordinates": [[[139.7741, 35.684], [139.77416, 35.684], [139.77416, 35.68412], [139.7741, 35.68412], [139.7741, 35.684]]]}, "properties": {"ix": 10, "iy": 0, "hour": 14, "heat_value": 2.0, "heat_bucket": "extreme"}}, {"type": "Feature", "geometry": {"type": "Polygon", "coordinates": [[[139.7741, 35.68412], [139.77416, 35.68412], [139.77416, 35.684239999999996], [139.7741, 35.684239999999996], [139.7741, 35.68412]]]}, "properties": {"ix": 10, "iy": 1, "hour": 14, "heat_value": 2.0, "heat_bucket": "extreme"}}, {"type": "Feature", "geometry": {"type": "Polygon", "coordinates": [[[139.7741, 35.684239999999996], [139.77416, 35.684239999999996], [139.77416, 35.68436], [139.7741, 35.68436], [139.7741, 35.684239999999996]]]}, "properties": {"ix": 10, "iy": 2, "hour": 14, "heat_value": 2.0, "heat_bucket": "extreme"}}, {"type": "Feature", "geometry": {"type": "Polygon", "coordinates": [[[139.7741, 35.68436], [139.77416, 35.68436], [139.77416, 35.68448], [139.7741, 35.68448], [139.7741, 35.68436]]]}, "properties": {"ix": 10, "iy": 3, "hour": 14, "heat_value": 1.9851, "heat_bucket": "extreme"}}, {"type": "Feature", "geometry": {"type": "Polygon", "coordinates": [[[139.7741, 35.68448], [139.77416, 35.68448], [139.77416, 35.6846], [139.7741, 35.6846], [139.7741, 35.68448]]]}, "properties": {"ix": 10, "iy": 4, "hour": 14, "heat_value": 2.0, "heat_bucket": "extreme"}}, {"type": "Feature", "geometry": {"type": "Polygon", "coordinates": [[[139.7741, 35.6846], [139.77416, 35.6846], [139.77416, 35.68472], [139.7741, 35.68472], [139.7741, 35.6846]]]}, "properties": {"ix": 10, "iy": 5, "hour": 14, "heat_value": 1.974, "heat_bucket": "extreme"}}, {"type": "Feature", "geometry": {"type": "Polygon", "coordinates": [[[139.7741, 35.68472], [139.77416, 35.68472], [139.77416, 35.68484], [139.7741, 35.68484], [139.7741, 35.68472]]]}, "properties": {"ix": 10, "iy": 6, "hour": 14, "heat_value": 1.7663, "heat_bucket": "extreme"}}, {"type": "Feature", "geometry": {"type": "Polygon", "coordinates": [[[139.7741, 35.68484], [139.77416, 35.68484], [139.77416, 35.684960000000004], [139.7741, 35.684960000000004], [139.7741, 35.68484]]]}, "properties": {"ix": 10, "iy": 7, "hour": 14, "heat_value": 1.6298, "heat_bucket": "extreme"}}, {"type": "Feature", "geometry": {"type": "Polygon", "coordinates": [[[139.7741, 35.684960000000004], [139.77416, 35.684960000000004], [139.77416, 35.68508], [139.7741, 35.68508], [139.7741, 35.684960000000004]]]}, "properties": {"ix": 10, "iy": 8, "hour": 14, "heat_value": 1.5243, "heat_bucket": "extreme"}}, {"type": "Feature", "geometry": {"type": "Polygon", "coordinates": [[[139.7741, 35.68508], [139.77416, 35.68508], [139.77416, 35.6852], [139.7741, 35.6852], [139.7741, 35.68508]]]}, "properties": {"ix": 10, "iy": 9, "hour": 14, "heat_value": 1.5618, "heat_bucket": "extreme"}}, {"type": "Feature", "geometry": {"type": "Polygon", "coordinates": [[[139.77416, 35.684], [139.77422, 35.684], [139.77422, 35.68412], [139.77416, 35.68412], [139.77416, 35.684]]]}, "properties": {"ix": 11, "iy": 0, "hour": 14, "heat_value": 2.0, "heat_bucket": "extreme"}}, {"type": "Feature", "geometry": {"type": "Polygon", "coordinates": [[[139.77416, 35.68412], [139.77422, 35.68412], [139.77422, 35.684239999999996], [139.77416, 35.684239999999996], [139.77416, 35.68412]]]}, "properties": {"ix": 11, "iy": 1, "hour": 14, "heat_value": 2.0, "heat_bucket": "extreme"}}, {"type": "Feature", "geometry": {"type": "Polygon", "coordinates": [[[139.77416, 35.684239999999996], [139.77422, 35.684239999999996], [139.77422, 35.68436], [139.77416, 35.68436], [139.77416, 35.684239999999996]]]}, "properties": {"ix": 11, "iy": 2, "hour": 14, "heat_value": 2.0, "heat_bucket": "extreme"}}, {"type": "Feature", "geometry": {"type": "Polygon", "coordinates": [[[139.77416, 35.68436], [139.77422, 35.68436], [139.77422, 35.68448], [139.77416, 35.68448], [139.77416, 35.68436]]]}, "properties": {"ix": 11, "iy": 3, "hour": 14, "heat_value": 2.0, "heat_bucket": "extreme"}}, {"type": "Feature", "geometry": {"type": "Polygon", "coordinates": [[[139.77416, 35.68448], [139.77422, 35.68448], [139.77422, 35.6846], [139.77416, 35.6846], [139.77416, 35.68448]]]}, "properties": {"ix": 11, "iy": 4, "hour": 14, "heat_value": 1.9542, "heat_bucket": "extreme"}}, {"type": "Feature", "geometry": {"type": "Polygon", "coordinates": [[[139.77416, 35.6846], [139.77422, 35.6846], [139.77422, 35.68472], [139.77416, 35.68472], [139.77416, 35.6846]]]}, "properties": {"ix": 11, "iy": 5, "hour": 14, "heat_value": 2.0, "heat_bucket": "extreme"}}, {"type": "Feature", "geometry": {"type": "Polygon", "coordinates": [[[139.77416, 35.68472], [139.77422, 35.68472], [139.77422, 35.68484], [139.77416, 35.68484], [139.77416, 35.68472]]]}, "properties": {"ix": 11, "iy": 6, "hour": 14, "heat_value": 1.7412, "heat_bucket": "extreme"}}, {"type": "Feature", "geometry": {"type": "Polygon", "coordinates": [[[139.77416, 35.68484], [139.77422, 35.68484], [139.77422, 35.684960000000004], [139.77416, 35.684960000000004], [139.77416, 35.68484]]]}, "properties": {"ix": 11, "iy": 7, "hour": 14, "heat_value": 1.5471, "heat_bucket": "extreme"}}, {"type": "Feature", "geometry": {"type": "Polygon", "coordinates": [[[139.77416, 35.684960000000004], [139.77422, 35.684960000000004], [139.77422, 35.68508], [139.77416, 35.68508], [139.77416, 35.684960000000004]]]}, "properties": {"ix": 11, "iy": 8, "hour": 14, "heat_value": 1.5838, "heat_bucket": "extreme"}}, {"type": "Feature", "geometry": {"type": "Polygon", "coordinates": [[[139.77416, 35.68508], [139.77422, 35.68508], [139.77422, 35.6852], [139.77416, 35.6852], [139.77416, 35.68508]]]}, "properties": {"ix": 11, "iy": 9, "hour": 14, "heat_value": 1.5445, "heat_bucket": "extreme"}}, {"type": "Feature", "geometry": {"type": "Polygon", "coordinates": [[[139.77422, 35.684], [139.77428, 35.684], [139.77428, 35.68412], [139.77422, 35.68412], [139.77422, 35.684]]]}, "properties": {"ix": 12, "iy": 0, "hour": 14, "heat_value": 2.0, "heat_bucket": "extreme"}}, {"type": "Feature", "geometry": {"type": "Polygon", "coordinates": [[[139.77422, 35.68412], [139.77428, 35.68412], [139.77428, 35.684239999999996], [139.77422, 35.684239999999996], [139.77422, 35.68412]]]}, "properties": {"ix": 12, "iy": 1, "hour": 14, "heat_value": 2.0, "heat_bucket": "extreme"}}, {"type": "Feature", "geometry": {"type": "Polygon", "coordinates": [[[139.77422, 35.684239999999996], [139.77428, 35.684239999999996], [139.77428, 35.68436], [139.77422, 35.68436], [139.77422, 35.684239999999996]]]}, "properties": {"ix": 12, "iy": 2, "hour": 14, "heat_value": 2.0, "heat_bucket": "extreme"}}, {"type": "Feature", "geometry": {"type": "Polygon", "coordinates": [[[139.77422, 35.68436], [139.77428, 35.68436], [139.77428, 35.68448], [139.77422, 35.68448], [139.77422, 35.68436]]]}, "properties": {"ix": 12, "iy": 3, "hour": 14, "heat_value": 2.0, "heat_bucket": "extreme"}}, {"type": "Feature", "geometry": {"type": "Polygon", "coordinates": [[[139.77422, 35.68448], [139.77428, 35.68448], [139.77428, 35.6846], [139.77422, 35.6846], [139.77422, 35.68448]]]}, "properties": {"ix": 12, "iy": 4, "hour": 14, "heat_value": 2.0, "heat_bucket": "extreme"}}, {"type": "Feature", "geometry": {"type": "Polygon", "coordinates": [[[139.77422, 35.6846], [139.77428, 35.6846], [139.77428, 35.68472], [139.77422, 35.68472], [139.77422, 35.6846]]]}, "properties": {"ix": 12, "iy": 5, "hour": 14, "heat_value": 2.0, "heat_bucket": "extreme"}}, {"type": "Feature", "geometry": {"type": "Polygon", "coordinates": [[[139.77422, 35.68472], [139.77428, 35.68472], [139.77428, 35.68484], [139.77422, 35.68484], [139.77422, 35.68472]]]}, "properties": {"ix": 12, "iy": 6, "hour": 14, "heat_value": 1.7547, "heat_bucket": "extreme"}}, {"type": "Feature", "geometry": {"type": "Polygon", "coordinates": [[[139.77422, 35.68484], [139.77428, 35.68484], [139.77428, 35.684960000000004], [139.77422, 35.684960000000004], [139.77422, 35.68484]]]}, "properties": {"ix": 12, "iy": 7, "hour": 14, "heat_value": 1.5224, "heat_bucket": "extreme"}}, {"type": "Feature", "geometry": {"type": "Polygon", "coordinates": [[[139.77422, 35.684960000000004], [139.77428, 35.684960000000004], [139.77428, 35.68508], [139.77422, 35.68508], [139.77422, 35.684960000000004]]]}, "properties": {"ix": 12, "iy": 8, "hour": 14, "heat_value": 1.6089, "heat_bucket": "extreme"}}, {"type": "Feature", "geometry": {"type": "Polygon", "coordinates": [[[139.77422, 35.68508], [139.77428, 35.68508], [139.77428, 35.6852], [139.77422, 35.6852], [139.77422, 35.68508]]]}, "properties": {"ix": 12, "iy": 9, "hour": 14, "heat_value": 1.6269, "heat_bucket": "extreme"}}, {"type": "Feature", "geometry": {"type": "Polygon", "coordinates": [[[139.77428, 35.684], [139.77434, 35.684], [139.77434, 35.68412], [139.77428, 35.68412], [139.77428, 35.684]]]}, "properties": {"ix": 13, "iy": 0, "hour": 14, "heat_value": 2.0, "heat_bucket": "extreme"}}, {"type": "Feature", "geometry": {"type": "Polygon", "coordinates": [[[139.77428, 35.68412], [139.77434, 35.68412], [139.77434, 35.684239999999996], [139.77428, 35.684239999999996], [139.77428, 35.68412]]]}, "properties": {"ix": 13, "iy": 1, "hour": 14, "heat_value": 2.0, "heat_bucket": "extreme"}}, {"type": "Feature", "geometry": {"type": "Polygon", "coordinates": [[[139.77428, 35.684239999999996], [139.77434, 35.684239999999996], [139.77434, 35.68436], [139.77428, 35.68436], [139.77428, 35.684239999999996]]]}, "properties": {"ix": 13, "iy": 2, "hour": 14, "heat_value": 2.0, "heat_bucket": "extreme"}}, {"type": "Feature", "geometry": {"type": "Polygon", "coordinates": [[[139.77428, 35.68436], [139.77434, 35.68436], [139.77434, 35.68448], [139.77428, 35.68448], [139.77428, 35.68436]]]}, "properties": {"ix": 13, "iy": 3, "hour": 14, "heat_value": 1.7695, "heat_bucket": "extreme"}}, {"type": "Feature", "geometry": {"type": "Polygon", "coordinates": [[[139.77428, 35.68448], [139.77434, 35.68448], [139.77434, 35.6846], [139.77428, 35.6846], [139.77428, 35.68448]]]}, "properties": {"ix": 13, "iy": 4, "hour": 14, "heat_value": 1.7994, "heat_bucket": "extreme"}}, {"type": "Feature", "geometry": {"type": "Polygon", "coordinates": [[[139.77428, 35.6846], [139.77434, 35.6846], [139.77434, 35.68472], [139.77428, 35.68472], [139.77428, 35.6846]]]}, "properties": {"ix": 13, "iy": 5, "hour": 14, "heat_value": 1.7786, "heat_bucket": "extreme"}}, {"type": "Feature", "geometry": {"type": "Polygon", "coordinates": [[[139.77428, 35.68472], [139.77434, 35.68472], [139.77434, 35.68484], [139.77428, 35.68484], [139.77428, 35.68472]]]}, "properties": {"ix": 13, "iy": 6, "hour": 14, "heat_value": 1.8532, "heat_bucket": "extreme"}}, {"type": "Feature", "geometry": {"type": "Polygon", "coordinates": [[[139.77428, 35.68484], [139.77434, 35.68484], [139.77434, 35.684960000000004], [139.77428, 35.684960000000004], [139.77428, 35.68484]]]}, "properties": {"ix": 13, "iy": 7, "hour": 14, "heat_value": 1.6272, "heat_bucket": "extreme"}}, {"type": "Feature", "geometry": {"type": "Polygon", "coordinates": [[[139.77428, 35.684960000000004], [139.77434, 35.684960000000004], [139.77434, 35.68508], [139.77428, 35.68508], [139.77428, 35.684960000000004]]]}, "properties": {"ix": 13, "iy": 8, "hour": 14, "heat_value": 1.5382, "heat_bucket": "extreme"}}, {"type": "Feature", "geometry": {"type": "Polygon", "coordinates": [[[139.77428, 35.68508], [139.77434, 35.68508], [139.77434, 35.6852], [139.77428, 35.6852], [139.77428, 35.68508]]]}, "properties": {"ix": 13, "iy": 9, "hour": 14, "heat_value": 1.5456, "heat_bucket": "extreme"}}, {"type": "Feature", "geometry": {"type": "Polygon", "coordinates": [[[139.77434, 35.684], [139.7744, 35.684], [139.7744, 35.68412], [139.77434, 35.68412], [139.77434, 35.684]]]}, "properties": {"ix": 14, "iy": 0, "hour": 14, "heat_value": 2.0, "heat_bucket": "extreme"}}, {"type": "Feature", "geometry": {"type": "Polygon", "coordinates": [[[139.77434, 35.68412], [139.7744, 35.68412], [139.7744, 35.684239999999996], [139.77434, 35.684239999999996], [139.77434, 35.68412]]]}, "properties": {"ix": 14, "iy": 1, "hour": 14, "heat_value": 2.0, "heat_bucket": "extreme"}}, {"type": "Feature", "geometry": {"type": "Polygon", "coordinates": [[[139.77434, 35.684239999999996], [139.7744, 35.684239999999996], [139.7744, 35.68436], [139.77434, 35.68436], [139.77434, 35.684239999999996]]]}, "properties": {"ix": 14, "iy": 2, "hour": 14, "heat_value": 2.0, "heat_bucket": "extreme"}}, {"type": "Feature", "geometry": {"type": "Polygon", "coordinates": [[[139.77434, 35.68436], [139.7744, 35.68436], [139.7744, 35.68448], [139.77434, 35.68448], [139.77434, 35.68436]]]}, "properties": {"ix": 14, "iy": 3, "hour": 14, "heat_value": 1.8393, "heat_bucket": "extreme"}}, {"type": "Feature", "geometry": {"type": "Polygon", "coordinates": [[[139.77434, 35.68448], [139.7744, 35.68448], [139.7744, 35.6846], [139.77434, 35.6846], [139.77434, 35.68448]]]}, "properties": {"ix": 14, "iy": 4, "hour": 14, "heat_value": 1.7606, "heat_bucket": "extreme"}}, {"type": "Feature", "geometry": {"type": "Polygon", "coordinates": [[[139.77434, 35.6846], [139.7744, 35.6846], [139.7744, 35.68472], [139.77434, 35.68472], [139.77434, 35.6846]]]}, "properties": {"ix": 14, "iy": 5, "hour": 14, "heat_value": 1.766, "heat_bucket": "extreme"}}, {"type": "Feature", "geometry": {"type": "Polygon", "coordinates": [[[139.77434, 35.68472], [139.7744, 35.68472], [139.7744, 35.68484], [139.77434, 35.68484], [139.77434, 35.68472]]]}, "properties": {"ix": 14, "iy": 6, "hour": 14, "heat_value": 1.7569, "heat_bucket": "extreme"}}, {"type": "Feature", "geometry": {"type": "Polygon", "coordinates": [[[139.77434, 35.68484], [139.7744, 35.68484], [139.7744, 35.684960000000004], [139.77434, 35.684960000000004], [139.77434, 35.68484]]]}, "properties": {"ix": 14, "iy": 7, "hour": 14, "heat_value": 1.4819, "heat_bucket": "extreme"}}, {"type": "Feature", "geometry": {"type": "Polygon", "coordinates": [[[139.77434, 35.684960000000004], [139.7744, 35.684960000000004], [139.7744, 35.68508], [139.77434, 35.68508], [139.77434, 35.684960000000004]]]}, "properties": {"ix": 14, "iy": 8, "hour": 14, "heat_value": 1.6232, "heat_bucket": "extreme"}}, {"type": "Feature", "geometry": {"type": "Polygon", "coordinates": [[[139.77434, 35.68508], [139.7744, 35.68508], [139.7744, 35.6852], [139.77434, 35.6852], [139.77434, 35.68508]]]}, "properties": {"ix": 14, "iy": 9, "hour": 14, "heat_value": 1.5195, "heat_bucket": "extreme"}}, {"type": "Feature", "geometry": {"type": "Polygon", "coordinates": [[[139.7744, 35.684], [139.77446, 35.684], [139.77446, 35.68412], [139.7744, 35.68412], [139.7744, 35.684]]]}, "properties": {"ix": 15, "iy": 0, "hour": 14, "heat_value": 2.0, "heat_bucket": "extreme"}}, {"type": "Feature", "geometry": {"type": "Polygon", "coordinates": [[[139.7744, 35.68412], [139.77446, 35.68412], [139.77446, 35.684239999999996], [139.7744, 35.684239999999996], [139.7744, 35.68412]]]}, "properties": {"ix": 15, "iy": 1, "hour": 14, "heat_value": 2.0, "heat_bucket": "extreme"}}, {"type": "Feature", "geometry": {"type": "Polygon", "coordinates": [[[139.7744, 35.684239999999996], [139.77446, 35.684239999999996], [139.77446, 35.68436], [139.7744, 35.68436], [139.7744, 35.684239999999996]]]}, "properties": {"ix": 15, "iy": 2, "hour": 14, "heat_value": 2.0, "heat_bucket": "extreme"}}, {"type": "Feature", "geometry": {"type": "Polygon", "coordinates": [[[139.7744, 35.68436], [139.77446, 35.68436], [139.77446, 35.68448], [139.7744, 35.68448], [139.7744, 35.68436]]]}, "properties": {"ix": 15, "iy": 3, "hour": 14, "heat_value": 1.7766, "heat_bucket": "extreme"}}, {"type": "Feature", "geometry": {"type": "Polygon", "coordinates": [[[139.7744, 35.68448], [139.77446, 35.68448], [139.77446, 35.6846], [139.7744, 35.6846], [139.7744, 35.68448]]]}, "properties": {"ix": 15, "iy": 4, "hour": 14, "heat_value": 1.7808, "heat_bucket": "extreme"}}, {"type": "Feature", "geometry": {"type": "Polygon", "coordinates": [[[139.7744, 35.6846], [139.77446, 35.6846], [139.77446, 35.68472], [139.7744, 35.68472], [139.7744, 35.6846]]]}, "properties": {"ix": 15, "iy": 5, "hour": 14, "heat_value": 1.696, "heat_bucket": "extreme"}}, {"type": "Feature", "geometry": {"type": "Polygon", "coordinates": [[[139.7744, 35.68472], [139.77446, 35.68472], [139.77446, 35.68484], [139.7744, 35.68484], [139.7744, 35.68472]]]}, "properties": {"ix": 15, "iy": 6, "hour": 14, "heat_value": 1.7756, "heat_bucket": "extreme"}}, {"type": "Feature", "geometry": {"type": "Polygon", "coordinates": [[[139.7744, 35.68484], [139.77446, 35.68484], [139.77446, 35.684960000000004], [139.7744, 35.684960000000004], [139.7744, 35.68484]]]}, "properties": {"ix": 15, "iy": 7, "hour": 14, "heat_value": 1.5062, "heat_bucket": "extreme"}}, {"type": "Feature", "geometry": {"type": "Polygon", "coordinates": [[[139.7744, 35.684960000000004], [139.77446, 35.684960000000004], [139.77446, 35.68508], [139.7744, 35.68508], [139.7744, 35.684960000000004]]]}, "properties": {"ix": 15, "iy": 8, "hour": 14, "heat_value": 1.5954, "heat_bucket": "extreme"}}, {"type": "Feature", "geometry": {"type": "Polygon", "coordinates": [[[139.7744, 35.68508], [139.77446, 35.68508], [139.77446, 35.6852], [139.7744, 35.6852], [139.7744, 35.68508]]]}, "properties": {"ix": 15, "iy": 9, "hour": 14, "heat_value": 1.5983, "heat_bucket": "extreme"}}, {"type": "Feature", "geometry": {"type": "Polygon", "coordinates": [[[139.77446, 35.684], [139.77452, 35.684], [139.77452, 35.68412], [139.77446, 35.68412], [139.77446, 35.684]]]}, "properties": {"ix": 16, "iy": 0, "hour": 14, "heat_value": 2.0, "heat_bucket": "extreme"}}, {"type": "Feature", "geometry": {"type": "Polygon", "coordinates": [[[139.77446, 35.68412], [139.77452, 35.68412], [139.77452, 35.684239999999996], [139.77446, 35.684239999999996], [139.77446, 35.68412]]]}, "properties": {"ix": 16, "iy": 1, "hour": 14, "heat_value": 2.0, "heat_bucket": "extreme"}}, {"type": "Feature", "geometry": {"type": "Polygon", "coordinates": [[[139.77446, 35.684239999999996], [139.77452, 35.684239999999996], [139.77452, 35.68436], [139.77446, 35.68436], [139.77446, 35.684239999999996]]]}, "properties": {"ix": 16, "iy": 2, "hour": 14, "heat_value": 2.0, "heat_bucket": "extreme"}}, {"type": "Feature", "geometry": {"type": "Polygon", "coordinates": [[[139.77446, 35.68436], [139.77452, 35.68436], [139.77452, 35.68448], [139.77446, 35.68448], [139.77446, 35.68436]]]}, "properties": {"ix": 16, "iy": 3, "hour": 14, "heat_value": 1.8098, "heat_bucket": "extreme"}}, {"type": "Feature", "geometry": {"type": "Polygon", "coordinates": [[[139.77446, 35.68448], [139.77452, 35.68448], [139.77452, 35.6846], [139.77446, 35.6846], [139.77446, 35.68448]]]}, "properties": {"ix": 16, "iy": 4, "hour": 14, "heat_value": 1.7871, "heat_bucket": "extreme"}}, {"type": "Feature", "geometry": {"type": "Polygon", "coordinates": [[[139.77446, 35.6846], [139.77452, 35.6846], [139.77452, 35.68472], [139.77446, 35.68472], [139.77446, 35.6846]]]}, "properties": {"ix": 16, "iy": 5, "hour": 14, "heat_value": 1.7704, "heat_bucket": "extreme"}}, {"type": "Feature", "geometry": {"type": "Polygon", "coordinates": [[[139.77446, 35.68472], [139.77452, 35.68472], [139.77452, 35.68484], [139.77446, 35.68484], [139.77446, 35.68472]]]}, "properties": {"ix": 16, "iy": 6, "hour": 14, "heat_value": 1.8283, "heat_bucket": "extreme"}}, {"type": "Feature", "geometry": {"type": "Polygon", "coordinates": [[[139.77446, 35.68484], [139.77452, 35.68484], [139.77452, 35.684960000000004], [139.77446, 35.684960000000004], [139.77446, 35.68484]]]}, "properties": {"ix": 16, "iy": 7, "hour": 14, "heat_value": 1.6351, "heat_bucket": "extreme"}}, {"type": "Feature", "geometry": {"type": "Polygon", "coordinates": [[[139.77446, 35.684960000000004], [139.77452, 35.684960000000004], [139.77452, 35.68508], [139.77446, 35.68508], [139.77446, 35.684960000000004]]]}, "properties": {"ix": 16, "iy": 8, "hour": 14, "heat_value": 1.5149, "heat_bucket": "extreme"}}, {"type": "Feature", "geometry": {"type": "Polygon", "coordinates": [[[139.77446, 35.68508], [139.77452, 35.68508], [139.77452, 35.6852], [139.77446, 35.6852], [139.77446, 35.68508]]]}, "properties": {"ix": 16, "iy": 9, "hour": 14, "heat_value": 1.6327, "heat_bucket": "extreme"}}, {"type": "Feature", "geometry": {"type": "Polygon", "coordinates": [[[139.77452, 35.684], [139.77458, 35.684], [139.77458, 35.68412], [139.77452, 35.68412], [139.77452, 35.684]]]}, "properties": {"ix": 17, "iy": 0, "hour": 14, "heat_value": 2.0, "heat_bucket": "extreme"}}, {"type": "Feature", "geometry": {"type": "Polygon", "coordinates": [[[139.77452, 35.68412], [139.77458, 35.68412], [139.77458, 35.684239999999996], [139.77452, 35.684239999999996], [139.77452, 35.68412]]]}, "properties": {"ix": 17, "iy": 1, "hour": 14, "heat_value": 2.0, "heat_bucket": "extreme"}}, {"type": "Feature", "geometry": {"type": "Polygon", "coordinates": [[[139.77452, 35.684239999999996], [139.77458, 35.684239999999996], [139.77458, 35.68436], [139.77452, 35.68436], [139.77452, 35.684239999999996]]]}, "properties": {"ix": 17, "iy": 2, "hour": 14, "heat_value": 2.0, "heat_bucket": "extreme"}}, {"type": "Feature", "geometry": {"type": "Polygon", "coordinates": [[[139.77452, 35.68436], [139.77458, 35.68436], [139.77458, 35.68448], [139.77452, 35.68448], [139.77452, 35.68436]]]}, "properties": {"ix": 17, "iy": 3, "hour": 14, "heat_value": 1.7178, "heat_bucket": "extreme"}}, {"type": "Feature", "geometry": {"type": "Polygon", "coordinates": [[[139.77452, 35.68448], [139.77458, 35.68448], [139.77458, 35.6846], [139.77452, 35.6846], [139.77452, 35.68448]]]}, "properties": {"ix": 17, "iy": 4, "hour": 14, "heat_value": 1.7214, "heat_bucket": "extreme"}}, {"type": "Feature", "geometry": {"type": "Polygon", "coordinates": [[[139.77452, 35.6846], [139.77458, 35.6846], [139.77458, 35.68472], [139.77452, 35.68472], [139.77452, 35.6846]]]}, "properties": {"ix": 17, "iy": 5, "hour": 14, "heat_value": 1.8712, "heat_bucket": "extreme"}}, {"type": "Feature", "geometry": {"type": "Polygon", "coordinates": [[[139.77452, 35.68472], [139.77458, 35.68472], [139.77458, 35.68484], [139.77452, 35.68484], [139.77452, 35.68472]]]}, "properties": {"ix": 17, "iy": 6, "hour": 14, "heat_value": 1.7926, "heat_bucket": "extreme"}}, {"type": "Feature", "geometry": {"type": "Polygon", "coordinates": [[[139.77452, 35.68484], [139.77458, 35.68484], [139.77458, 35.684960000000004], [139.77452, 35.684960000000004], [139.77452, 35.68484]]]}, "properties": {"ix": 17, "iy": 7, "hour": 14, "heat_value": 1.5091, "heat_bucket": "extreme"}}, {"type": "Feature", "geometry": {"type": "Polygon", "coordinates": [[[139.77452, 35.684960000000004], [139.77458, 35.684960000000004], [139.77458, 35.68508], [139.77452, 35.68508], [139.77452, 35.684960000000004]]]}, "properties": {"ix": 17, "iy": 8, "hour": 14, "heat_value": 1.5974, "heat_bucket": "extreme"}}, {"type": "Feature", "geometry": {"type": "Polygon", "coordinates": [[[139.77452, 35.68508], [139.77458, 35.68508], [139.77458, 35.6852], [139.77452, 35.6852], [139.77452, 35.68508]]]}, "properties": {"ix": 17, "iy": 9, "hour": 14, "heat_value": 1.5619, "heat_bucket": "extreme"}}, {"type": "Feature", "geometry": {"type": "Polygon", "coordinates": [[[139.77458, 35.684], [139.77464, 35.684], [139.77464, 35.68412], [139.77458, 35.68412], [139.77458, 35.684]]]}, "properties": {"ix": 18, "iy": 0, "hour": 14, "heat_value": 1.9878, "heat_bucket": "extreme"}}, {"type": "Feature", "geometry": {"type": "Polygon", "coordinates": [[[139.77458, 35.68412], [139.77464, 35.68412], [139.77464, 35.684239999999996], [139.77458, 35.684239999999996], [139.77458, 35.68412]]]}, "properties": {"ix": 18, "iy": 1, "hour": 14, "heat_value": 1.9655, "heat_bucket": "extreme"}}, {"type": "Feature", "geometry": {"type": "Polygon", "coordinates": [[[139.77458, 35.684239999999996], [139.77464, 35.684239999999996], [139.77464, 35.68436], [139.77458, 35.68436], [139.77458, 35.684239999999996]]]}, "properties": {"ix": 18, "iy": 2, "hour": 14, "heat_value": 1.9999, "heat_bucket": "extreme"}}, {"type": "Feature", "geometry": {"type": "Polygon", "coordinates": [[[139.77458, 35.68436], [139.77464, 35.68436], [139.77464, 35.68448], [139.77458, 35.68448], [139.77458, 35.68436]]]}, "properties": {"ix": 18, "iy": 3, "hour": 14, "heat_value": 1.7936, "heat_bucket": "extreme"}}, {"type": "Feature", "geometry": {"type": "Polygon", "coordinates": [[[139.77458, 35.68448], [139.77464, 35.68448], [139.77464, 35.6846], [139.77458, 35.6846], [139.77458, 35.68448]]]}, "properties": {"ix": 18, "iy": 4, "hour": 14, "heat_value": 1.7776, "heat_bucket": "extreme"}}, {"type": "Feature", "geometry": {"type": "Polygon", "coordinates": [[[139.77458, 35.6846], [139.77464, 35.6846], [139.77464, 35.68472], [139.77458, 35.68472], [139.77458, 35.6846]]]}, "properties": {"ix": 18, "iy": 5, "hour": 14, "heat_value": 1.7675, "heat_bucket": "extreme"}}, {"type": "Feature", "geometry": {"type": "Polygon", "coordinates": [[[139.77458, 35.68472], [139.77464, 35.68472], [139.77464, 35.68484], [139.77458, 35.68484], [139.77458, 35.68472]]]}, "properties": {"ix": 18, "iy": 6, "hour": 14, "heat_value": 1.7942, "heat_bucket": "extreme"}}, {"type": "Feature", "geometry": {"type": "Polygon", "coordinates": [[[139.77458, 35.68484], [139.77464, 35.68484], [139.77464, 35.684960000000004], [139.77458, 35.684960000000004], [139.77458, 35.68484]]]}, "properties": {"ix": 18, "iy": 7, "hour": 14, "heat_value": 1.6101, "heat_bucket": "extreme"}}, {"type": "Feature", "geometry": {"type": "Polygon", "coordinates": [[[139.77458, 35.684960000000004], [139.77464, 35.684960000000004], [139.77464, 35.68508], [139.77458, 35.68508], [139.77458, 35.684960000000004]]]}, "properties": {"ix": 18, "iy": 8, "hour": 14, "heat_value": 1.4749, "heat_bucket": "extreme"}}, {"type": "Feature", "geometry": {"type": "Polygon", "coordinates": [[[139.77458, 35.68508], [139.77464, 35.68508], [139.77464, 35.6852], [139.77458, 35.6852], [139.77458, 35.68508]]]}, "properties": {"ix": 18, "iy": 9, "hour": 14, "heat_value": 1.5649, "heat_bucket": "extreme"}}, {"type": "Feature", "geometry": {"type": "Polygon", "coordinates": [[[139.77464, 35.684], [139.7747, 35.684], [139.7747, 35.68412], [139.77464, 35.68412], [139.77464, 35.684]]]}, "properties": {"ix": 19, "iy": 0, "hour": 14, "heat_value": 2.0, "heat_bucket": "extreme"}}, {"type": "Feature", "geometry": {"type": "Polygon", "coordinates": [[[139.77464, 35.68412], [139.7747, 35.68412], [139.7747, 35.684239999999996], [139.77464, 35.684239999999996], [139.77464, 35.68412]]]}, "properties": {"ix": 19, "iy": 1, "hour": 14, "heat_value": 2.0, "heat_bucket": "extreme"}}, {"type": "Feature", "geometry": {"type": "Polygon", "coordinates": [[[139.77464, 35.684239999999996], [139.7747, 35.684239999999996], [139.7747, 35.68436], [139.77464, 35.68436], [139.77464, 35.684239999999996]]]}, "properties": {"ix": 19, "iy": 2, "hour": 14, "heat_value": 2.0, "heat_bucket": "extreme"}}, {"type": "Feature", "geometry": {"type": "Polygon", "coordinates": [[[139.77464, 35.68436], [139.7747, 35.68436], [139.7747, 35.68448], [139.77464, 35.68448], [139.77464, 35.68436]]]}, "properties": {"ix": 19, "iy": 3, "hour": 14, "heat_value": 1.7739, "heat_bucket": "extreme"}}, {"type": "Feature", "geometry": {"type": "Polygon", "coordinates": [[[139.77464, 35.68448], [139.7747, 35.68448], [139.7747, 35.6846], [139.77464, 35.6846], [139.77464, 35.68448]]]}, "properties": {"ix": 19, "iy": 4, "hour": 14, "heat_value": 1.7667, "heat_bucket": "extreme"}}, {"type": "Feature", "geometry": {"type": "Polygon", "coordinates": [[[139.77464, 35.6846], [139.7747, 35.6846], [139.7747, 35.68472], [139.77464, 35.68472], [139.77464, 35.6846]]]}, "properties": {"ix": 19, "iy": 5, "hour": 14, "heat_value": 1.7073, "heat_bucket": "extreme"}}, {"type": "Feature", "geometry": {"type": "Polygon", "coordinates": [[[139.77464, 35.68472], [139.7747, 35.68472], [139.7747, 35.68484], [139.77464, 35.68484], [139.77464, 35.68472]]]}, "properties": {"ix": 19, "iy": 6, "hour": 14, "heat_value": 1.7558, "heat_bucket": "extreme"}}, {"type": "Feature", "geometry": {"type": "Polygon", "coordinates": [[[139.77464, 35.68484], [139.7747, 35.68484], [139.7747, 35.684960000000004], [139.77464, 35.684960000000004], [139.77464, 35.68484]]]}, "properties": {"ix": 19, "iy": 7, "hour": 14, "heat_value": 1.6808, "heat_bucket": "extreme"}}, {"type": "Feature", "geometry": {"type": "Polygon", "coordinates": [[[139.77464, 35.684960000000004], [139.7747, 35.684960000000004], [139.7747, 35.68508], [139.77464, 35.68508], [139.77464, 35.684960000000004]]]}, "properties": {"ix": 19, "iy": 8, "hour": 14, "heat_value": 1.5273, "heat_bucket": "extreme"}}, {"type": "Feature", "geometry": {"type": "Polygon", "coordinates": [[[139.77464, 35.68508], [139.7747, 35.68508], [139.7747, 35.6852], [139.77464, 35.6852], [139.77464, 35.68508]]]}, "properties": {"ix": 19, "iy": 9, "hour": 14, "heat_value": 1.4956, "heat_bucket": "extreme"}}], "metadata": {"crs": "EPSG:4326", "hour": 14, "grid": [20, 10]}}