{"type": "FeatureCollection", "features": [{"type": "Feature", "geometry": {"type": "Polygon", "coordinates": [[[139.77363800000003, 35.684876], [139.77366200000003, 35.684876], [139.77366200000003, 35.684924], [139.77363800000003, 35.684924], [139.77363800000003, 35.684876]]]}, "properties": {"building_id": "SH_MITSUKOSHI", "cell_x": 2, "cell_y": 7, "centroid_lat": 35.6849, "centroid_lon": 139.77365, "max_occupants_peak": 28, "max_occupants_offhours": 7}}, {"type": "Feature", "geometry": {"type": "Polygon", "coordinates": [[[139.773878, 35.684276], [139.773902, 35.684276], [139.773902, 35.684324], [139.773878, 35.684324], [139.773878, 35.684276]]]}, "properties": {"building_id": "SH_COREDO", "cell_x": 6, "cell_y": 2, "centroid_lat": 35.6843, "centroid_lon": 139.77389, "max_occupants_peak": 40, "max_occupants_offhours": 10}}, {"type": "Feature", "geometry": {"type": "Polygon", "coordinates": [[[139.77411800000002, 35.684876], [139.774142, 35.684876], [139.774142, 35.684924], [139.77411800000002, 35.684924], [139.77411800000002, 35.684876]]]}, "properties": {"building_id": "SH_BANK_HALL", "cell_x": 10, "cell_y": 7, "centroid_lat": 35.6849, "centroid_lon": 139.77413, "max_occupants_peak": 34, "max_occupants_offhours": 8}}, {"type": "Feature", "geometry": {"type": "Polygon", "coordinates": [[[139.77429800000002, 35.684396], [139.774322, 35.684396], [139.774322, 35.684444], [139.77429800000002, 35.684444], [139.77429800000002, 35.684396]]]}, "properties": {"building_id": "SH_SUBWAY_EXIT", "cell_x": 13, "cell_y": 3, "centroid_lat": 35.684419999999996, "centroid_lon": 139.77431, "max_occupants_peak": 35, "max_occupants_offhours": 8}}, {"type": "Feature", "geometry": {"type": "Polygon", "coordinates": [[[139.77453799999998, 35.684756], [139.77456199999997, 35.684756], [139.77456199999997, 35.684804], [139.77453799999998, 35.684804], [139.77453799999998, 35.684756]]]}, "properties": {"building_id": "SH_BRIDGE_PLAZA", "cell_x": 17, "cell_y": 6, "centroid_lat": 35.68478, "centroid_lon": 139.77455, "max_occupants_peak": 45, "max_occupants_offhours": 11}}], "metadata": {"crs": "EPSG:4326", "n_shelters": 5}}